OBJECT B                
1 51825U 22019B   26013.62087557  .00026726  00000+0  39531-3 0  9993
2 51825  97.3636  99.1191 0007298 339.4251  20.6709 15.55254303215599
